[
    {
        "Altitude(m)": 705375.5734541226,
        "Argument of Periapsis(deg)": 0.009112096949301655,
        "Eccentricity": 0.0,
        "Inclination(deg)": 45.0,
        "Latitude(deg)": 36.12506719989653,
        "Longitude(deg)": 37.838286131349825,
        "Mean Anomaly(deg)": 123.77207331798466,
        "RAAN(deg)": 4.991398446833437,
        "Satellite Name": "Constellation 1 29",
        "Satellite Number": 29,
        "Semi-Major Axis(m)": 7083131.272910544,
        "Time(s)": 152
    },
    {
        "Altitude(m)": 705369.7187937195,
        "Argument of Periapsis(deg)": 0.009172044955547059,
        "Eccentricity": 0.0,
        "Inclination(deg)": 45.0,
        "Latitude(deg)": 36.095420309648425,
        "Longitude(deg)": 37.89970504836277,
        "Mean Anomaly(deg)": 123.83277445823455,
        "RAAN(deg)": 4.991341857667868,
        "Satellite Name": "Constellation 1 29",
        "Satellite Number": 29,
        "Semi-Major Axis(m)": 7083131.272910544,
        "Time(s)": 153
    },
    {
        "Altitude(m)": 705363.861230829,
        "Argument of Periapsis(deg)": 0.009231992961792466,
        "Eccentricity": 0.0,
        "Inclination(deg)": 45.0,
        "Latitude(deg)": 36.065737476786204,
        "Longitude(deg)": 37.96107476376239,
        "Mean Anomaly(deg)": 123.89347559848447,
        "RAAN(deg)": 4.991285268502298,
        "Satellite Name": "Constellation 1 29",
        "Satellite Number": 29,
        "Semi-Major Axis(m)": 7083131.272910544,
        "Time(s)": 154
    },
    {
        "Altitude(m)": 705358.0008023693,
        "Argument of Periapsis(deg)": 0.009291940968037872,
        "Eccentricity": 0.0,
        "Inclination(deg)": 45.0,
        "Latitude(deg)": 36.0360187665336,
        "Longitude(deg)": 38.02239530867611,
        "Mean Anomaly(deg)": 123.95417673873436,
        "RAAN(deg)": 4.991228679336728,
        "Satellite Name": "Constellation 1 29",
        "Satellite Number": 29,
        "Semi-Major Axis(m)": 7083131.272910544,
        "Time(s)": 155
    },
    {
        "Altitude(m)": 705352.1375452903,
        "Argument of Periapsis(deg)": 0.009351888974283276,
        "Eccentricity": 0.0,
        "Inclination(deg)": 45.0,
        "Latitude(deg)": 36.00626424405751,
        "Longitude(deg)": 38.083666546381345,
        "Mean Anomaly(deg)": 124.01487787898428,
        "RAAN(deg)": 4.991172090171159,
        "Satellite Name": "Constellation 1 29",
        "Satellite Number": 29,
        "Semi-Major Axis(m)": 7083131.272910544,
        "Time(s)": 156
    },
    {
        "Altitude(m)": 705346.271496565,
        "Argument of Periapsis(deg)": 0.00941183698052868,
        "Eccentricity": 0.0,
        "Inclination(deg)": 45.0,
        "Latitude(deg)": 35.976473974469215,
        "Longitude(deg)": 38.144888844692005,
        "Mean Anomaly(deg)": 124.07557901923415,
        "RAAN(deg)": 4.99111550100559,
        "Satellite Name": "Constellation 1 29",
        "Satellite Number": 29,
        "Semi-Major Axis(m)": 7083131.272910544,
        "Time(s)": 157
    },
    {
        "Altitude(m)": 705340.4026932002,
        "Argument of Periapsis(deg)": 0.009471784986774088,
        "Eccentricity": 0.0,
        "Inclination(deg)": 45.0,
        "Latitude(deg)": 35.94664802282229,
        "Longitude(deg)": 38.206062067374525,
        "Mean Anomaly(deg)": 124.13628015948406,
        "RAAN(deg)": 4.99105891184002,
        "Satellite Name": "Constellation 1 29",
        "Satellite Number": 29,
        "Semi-Major Axis(m)": 7083131.272910544,
        "Time(s)": 158
    },
    {
        "Altitude(m)": 705334.5311722343,
        "Argument of Periapsis(deg)": 0.009531732993019492,
        "Eccentricity": 0.0,
        "Inclination(deg)": 45.0,
        "Latitude(deg)": 35.916786454113456,
        "Longitude(deg)": 38.267186246535374,
        "Mean Anomaly(deg)": 124.19698129973395,
        "RAAN(deg)": 4.991002322674451,
        "Satellite Name": "Constellation 1 29",
        "Satellite Number": 29,
        "Semi-Major Axis(m)": 7083131.272910544,
        "Time(s)": 159
    },
    {
        "Altitude(m)": 705328.6569707299,
        "Argument of Periapsis(deg)": 0.009591680999264898,
        "Eccentricity": 0.0,
        "Inclination(deg)": 45.0,
        "Latitude(deg)": 35.88688933328218,
        "Longitude(deg)": 38.32826141452225,
        "Mean Anomaly(deg)": 124.25768243998387,
        "RAAN(deg)": 4.990945733508881,
        "Satellite Name": "Constellation 1 29",
        "Satellite Number": 29,
        "Semi-Major Axis(m)": 7083131.272910544,
        "Time(s)": 160
    },
    {
        "Altitude(m)": 705322.7801257872,
        "Argument of Periapsis(deg)": 0.009651629005510304,
        "Eccentricity": 0.0,
        "Inclination(deg)": 45.0,
        "Latitude(deg)": 35.85695672521023,
        "Longitude(deg)": 38.389287603923016,
        "Mean Anomaly(deg)": 124.31838358023376,
        "RAAN(deg)": 4.990889144343312,
        "Satellite Name": "Constellation 1 29",
        "Satellite Number": 29,
        "Semi-Major Axis(m)": 7083131.272910544,
        "Time(s)": 161
    },
    {
        "Altitude(m)": 705316.9006745206,
        "Argument of Periapsis(deg)": 0.00971157701175571,
        "Eccentricity": 0.0,
        "Inclination(deg)": 45.0,
        "Latitude(deg)": 35.82698869472182,
        "Longitude(deg)": 38.45026484756396,
        "Mean Anomaly(deg)": 124.37908472048368,
        "RAAN(deg)": 4.990832555177742,
        "Satellite Name": "Constellation 1 29",
        "Satellite Number": 29,
        "Semi-Major Axis(m)": 7083131.272910544,
        "Time(s)": 162
    },
    {
        "Altitude(m)": 705311.0186540876,
        "Argument of Periapsis(deg)": 0.009771525018001118,
        "Eccentricity": 0.0,
        "Inclination(deg)": 45.0,
        "Latitude(deg)": 35.79698530658253,
        "Longitude(deg)": 38.511193010411965,
        "Mean Anomaly(deg)": 124.43978586073355,
        "RAAN(deg)": 4.990775966012173,
        "Satellite Name": "Constellation 1 29",
        "Satellite Number": 29,
        "Semi-Major Axis(m)": 7083131.272910544,
        "Time(s)": 163
    },
    {
        "Altitude(m)": 705305.1341016692,
        "Argument of Periapsis(deg)": 0.00983147302424652,
        "Eccentricity": 0.0,
        "Inclination(deg)": 45.0,
        "Latitude(deg)": 35.76694662550069,
        "Longitude(deg)": 38.572072461961234,
        "Mean Anomaly(deg)": 124.50048700098345,
        "RAAN(deg)": 4.990719376846603,
        "Satellite Name": "Constellation 1 29",
        "Satellite Number": 29,
        "Semi-Major Axis(m)": 7083131.272910544,
        "Time(s)": 164
    },
    {
        "Altitude(m)": 705299.2470544724,
        "Argument of Periapsis(deg)": 0.009891421030491928,
        "Eccentricity": 0.0,
        "Inclination(deg)": 45.0,
        "Latitude(deg)": 35.73687271612525,
        "Longitude(deg)": 38.63290306764929,
        "Mean Anomaly(deg)": 124.56118814123334,
        "RAAN(deg)": 4.990662787681034,
        "Satellite Name": "Constellation 1 29",
        "Satellite Number": 29,
        "Semi-Major Axis(m)": 7083131.272910544,
        "Time(s)": 165
    },
    {
        "Altitude(m)": 705293.3575497372,
        "Argument of Periapsis(deg)": 0.009951369036737332,
        "Eccentricity": 0.0,
        "Inclination(deg)": 45.0,
        "Latitude(deg)": 35.70676364304659,
        "Longitude(deg)": 38.693684861244485,
        "Mean Anomaly(deg)": 124.62188928148326,
        "RAAN(deg)": 4.990606198515464,
        "Satellite Name": "Constellation 1 29",
        "Satellite Number": 29,
        "Semi-Major Axis(m)": 7083131.272910544,
        "Time(s)": 166
    },
    {
        "Altitude(m)": 705287.4656247293,
        "Argument of Periapsis(deg)": 0.010011317042982738,
        "Eccentricity": 0.0,
        "Inclination(deg)": 45.0,
        "Latitude(deg)": 35.676619470796304,
        "Longitude(deg)": 38.75441787674698,
        "Mean Anomaly(deg)": 124.68259042173315,
        "RAAN(deg)": 4.990549609349895,
        "Satellite Name": "Constellation 1 29",
        "Satellite Number": 29,
        "Semi-Major Axis(m)": 7083131.272910544,
        "Time(s)": 167
    },
    {
        "Altitude(m)": 705281.5713167392,
        "Argument of Periapsis(deg)": 0.010071265049228144,
        "Eccentricity": 0.0,
        "Inclination(deg)": 45.0,
        "Latitude(deg)": 35.64644026384665,
        "Longitude(deg)": 38.81510214838814,
        "Mean Anomaly(deg)": 124.74329156198307,
        "RAAN(deg)": 4.990493020184325,
        "Satellite Name": "Constellation 1 29",
        "Satellite Number": 29,
        "Semi-Major Axis(m)": 7083131.272910544,
        "Time(s)": 168
    },
    {
        "Altitude(m)": 705275.6746630885,
        "Argument of Periapsis(deg)": 0.01013121305547355,
        "Eccentricity": 0.0,
        "Inclination(deg)": 45.0,
        "Latitude(deg)": 35.61622608661053,
        "Longitude(deg)": 38.87573771062865,
        "Mean Anomaly(deg)": 124.80399270223295,
        "RAAN(deg)": 4.990436431018756,
        "Satellite Name": "Constellation 1 29",
        "Satellite Number": 29,
        "Semi-Major Axis(m)": 7083131.272910544,
        "Time(s)": 169
    },
    {
        "Altitude(m)": 705269.775701128,
        "Argument of Periapsis(deg)": 0.010191161061718957,
        "Eccentricity": 0.0,
        "Inclination(deg)": 45.0,
        "Latitude(deg)": 35.58597700344112,
        "Longitude(deg)": 38.93632459815776,
        "Mean Anomaly(deg)": 124.86469384248285,
        "RAAN(deg)": 4.990379841853186,
        "Satellite Name": "Constellation 1 29",
        "Satellite Number": 29,
        "Semi-Major Axis(m)": 7083131.272910544,
        "Time(s)": 170
    }
]